QIANFAN-18              
1 60396U 24140T   26066.22008794  .00000062  00000+0  78275-4 0  9997
2 60396  88.9717 290.2339 0013011 309.9986  50.0022 13.51003827 78930
QIANFAN-19              
1 61552U 24185A   26066.27123069  .00000683  00000+0  34976-3 0  9997
2 61552  88.9761  68.2346 0008474  46.7418 313.4475 14.14389339 81610
QIANFAN-20              
1 61553U 24185B   26066.27555857  .00000650  00000+0  36807-3 0  9991
2 61553  88.9759  68.6433 0007865  78.8886 281.3181 14.08935653 81398
QIANFAN-21              
1 61554U 24185C   26066.29339998  .00000877  00000+0  38509-3 0  9992
2 61554  88.9679  67.0551 0013021  88.3527 271.9156 14.22730997 81996
QIANFAN-22              
1 61555U 24185D   26066.23778163  .00000330  00000+0  27403-3 0  9993
2 61555  88.9742  69.9704 0008626  96.2120 264.0034 13.86339844 80645
QIANFAN-23              
1 61556U 24185E   26066.26873503  .00000772  00000+0  38152-3 0  9994
2 61556  88.9753  68.0049 0009439  54.5808 305.6260 14.16394791 81711
QIANFAN-24              
1 61557U 24185F   26066.22480573  .00001078  00000+0  46415-3 0  9993
2 61557  88.9737  67.2768 0010446  34.5029 325.6839 14.23935766 82048
QIANFAN-25              
1 61558U 24185G   26066.27370037  .00000598  00000+0  35628-3 0  9992
2 61558  88.9751  68.6025 0011900  61.0823 299.1552 14.05997043 81388
QIANFAN-26              
1 61559U 24185H   26066.28030591  .00000286  00000+0  27255-3 0  9993
2 61559  88.9747  70.6085 0007735 108.9510 251.2495 13.77862305 80315
QIANFAN-27              
1 61560U 24185J   26066.29240008  .00000725  00000+0  28947-3 0  9999
2 61560  88.9751  67.0110 0008491  27.6560 332.5084 14.27445636 82222
QIANFAN-28              
1 61561U 24185K   26066.23096058  .00001230  00000+0  48810-3 0  9991
2 61561  88.9766  67.0254 0008098  29.0475 331.1169 14.28216801 82233
QIANFAN-29              
1 61562U 24185L   26066.24348538  .00000205  00000+0  29923-3 0  9991
2 61562  88.9720  72.5610 0010507 155.3144 204.8512 13.51044348 79206
QIANFAN-30              
1 61563U 24185M   26066.28237334  .00000206  00000+0  30486-3 0  9994
2 61563  88.9740  72.1147 0008792 139.7767 220.4035 13.50019364 79472
QIANFAN-31              
1 61564U 24185N   26066.27008443  .00000241  00000+0  31689-3 0  9996
2 61564  88.9724  71.7833 0008452 131.4729 228.7154 13.58003831 79633
QIANFAN-32              
1 61565U 24185P   26066.27817172  .00000172  00000+0  24788-3 0  9999
2 61565  88.9784  72.2752 0009868 168.0691 192.0696 13.50764499 79452
QIANFAN-33              
1 61566U 24185Q   26066.23357780  .00000530  00000+0  37276-3 0  9994
2 61566  88.9739  69.3688 0009251  69.6780 290.5390 13.96624710 80952
QIANFAN-34              
1 61567U 24185R   26066.28045892  .00000598  00000+0  38084-3 0  9990
2 61567  88.9716  68.8148 0008285  72.9627 287.2460 14.02384983 81209
