[{"OBJECT_NAME":"QIANFAN-18","OBJECT_ID":"2024-140T","EPOCH":"2026-03-07T05:16:55.598016","MEAN_MOTION":13.51003827,"ECCENTRICITY":0.00130114,"INCLINATION":88.9717,"RA_OF_ASC_NODE":290.2339,"ARG_OF_PERICENTER":309.9986,"MEAN_ANOMALY":50.0022,"EPHEMERIS_TYPE":0,"CLASSIFICATION_TYPE":"U","NORAD_CAT_ID":60396,"ELEMENT_SET_NO":999,"REV_AT_EPOCH":7893,"BSTAR":7.8275289e-5,"MEAN_MOTION_DOT":6.2e-7,"MEAN_MOTION_DDOT":0},{"OBJECT_NAME":"QIANFAN-19","OBJECT_ID":"2024-185A","EPOCH":"2026-03-07T06:30:34.331616","MEAN_MOTION":14.14389339,"ECCENTRICITY":0.00084743,"INCLINATION":88.9761,"RA_OF_ASC_NODE":68.2346,"ARG_OF_PERICENTER":46.7418,"MEAN_ANOMALY":313.4475,"EPHEMERIS_TYPE":0,"CLASSIFICATION_TYPE":"U","NORAD_CAT_ID":61552,"ELEMENT_SET_NO":999,"REV_AT_EPOCH":8161,"BSTAR":0.00034975873,"MEAN_MOTION_DOT":6.83e-6,"MEAN_MOTION_DDOT":0},{"OBJECT_NAME":"QIANFAN-20","OBJECT_ID":"2024-185B","EPOCH":"2026-03-07T06:36:48.260448","MEAN_MOTION":14.08935653,"ECCENTRICITY":0.00078657,"INCLINATION":88.9759,"RA_OF_ASC_NODE":68.6433,"ARG_OF_PERICENTER":78.8886,"MEAN_ANOMALY":281.3181,"EPHEMERIS_TYPE":0,"CLASSIFICATION_TYPE":"U","NORAD_CAT_ID":61553,"ELEMENT_SET_NO":999,"REV_AT_EPOCH":8139,"BSTAR":0.00036807252,"MEAN_MOTION_DOT":6.5e-6,"MEAN_MOTION_DDOT":0},{"OBJECT_NAME":"QIANFAN-21","OBJECT_ID":"2024-185C","EPOCH":"2026-03-07T07:02:29.758272","MEAN_MOTION":14.22730997,"ECCENTRICITY":0.00130219,"INCLINATION":88.9679,"RA_OF_ASC_NODE":67.0551,"ARG_OF_PERICENTER":88.3527,"MEAN_ANOMALY":271.9156,"EPHEMERIS_TYPE":0,"CLASSIFICATION_TYPE":"U","NORAD_CAT_ID":61554,"ELEMENT_SET_NO":999,"REV_AT_EPOCH":8199,"BSTAR":0.0003850869,"MEAN_MOTION_DOT":8.77e-6,"MEAN_MOTION_DDOT":0},{"OBJECT_NAME":"QIANFAN-22","OBJECT_ID":"2024-185D","EPOCH":"2026-03-07T05:42:24.332832","MEAN_MOTION":13.86339844,"ECCENTRICITY":0.00086268,"INCLINATION":88.9742,"RA_OF_ASC_NODE":69.9704,"ARG_OF_PERICENTER":96.212,"MEAN_ANOMALY":264.0034,"EPHEMERIS_TYPE":0,"CLASSIFICATION_TYPE":"U","NORAD_CAT_ID":61555,"ELEMENT_SET_NO":999,"REV_AT_EPOCH":8064,"BSTAR":0.00027402644,"MEAN_MOTION_DOT":3.3e-6,"MEAN_MOTION_DDOT":0},{"OBJECT_NAME":"QIANFAN-23","OBJECT_ID":"2024-185E","EPOCH":"2026-03-07T06:26:58.706592","MEAN_MOTION":14.16394791,"ECCENTRICITY":0.00094391,"INCLINATION":88.9753,"RA_OF_ASC_NODE":68.0049,"ARG_OF_PERICENTER":54.5808,"MEAN_ANOMALY":305.626,"EPHEMERIS_TYPE":0,"CLASSIFICATION_TYPE":"U","NORAD_CAT_ID":61556,"ELEMENT_SET_NO":999,"REV_AT_EPOCH":8171,"BSTAR":0.00038151914,"MEAN_MOTION_DOT":7.72e-6,"MEAN_MOTION_DDOT":0},{"OBJECT_NAME":"QIANFAN-24","OBJECT_ID":"2024-185F","EPOCH":"2026-03-07T05:23:43.215072","MEAN_MOTION":14.23935766,"ECCENTRICITY":0.00104464,"INCLINATION":88.9737,"RA_OF_ASC_NODE":67.2768,"ARG_OF_PERICENTER":34.5029,"MEAN_ANOMALY":325.6839,"EPHEMERIS_TYPE":0,"CLASSIFICATION_TYPE":"U","NORAD_CAT_ID":61557,"ELEMENT_SET_NO":999,"REV_AT_EPOCH":8204,"BSTAR":0.0004641502,"MEAN_MOTION_DOT":1.078e-5,"MEAN_MOTION_DDOT":0},{"OBJECT_NAME":"QIANFAN-25","OBJECT_ID":"2024-185G","EPOCH":"2026-03-07T06:34:07.711968","MEAN_MOTION":14.05997043,"ECCENTRICITY":0.00119003,"INCLINATION":88.9751,"RA_OF_ASC_NODE":68.6025,"ARG_OF_PERICENTER":61.0823,"MEAN_ANOMALY":299.1552,"EPHEMERIS_TYPE":0,"CLASSIFICATION_TYPE":"U","NORAD_CAT_ID":61558,"ELEMENT_SET_NO":999,"REV_AT_EPOCH":8138,"BSTAR":0.0003562849,"MEAN_MOTION_DOT":5.98e-6,"MEAN_MOTION_DDOT":0},{"OBJECT_NAME":"QIANFAN-26","OBJECT_ID":"2024-185H","EPOCH":"2026-03-07T06:43:38.430624","MEAN_MOTION":13.77862305,"ECCENTRICITY":0.00077351,"INCLINATION":88.9747,"RA_OF_ASC_NODE":70.6085,"ARG_OF_PERICENTER":108.951,"MEAN_ANOMALY":251.2495,"EPHEMERIS_TYPE":0,"CLASSIFICATION_TYPE":"U","NORAD_CAT_ID":61559,"ELEMENT_SET_NO":999,"REV_AT_EPOCH":8031,"BSTAR":0.00027255243,"MEAN_MOTION_DOT":2.86e-6,"MEAN_MOTION_DDOT":0},{"OBJECT_NAME":"QIANFAN-27","OBJECT_ID":"2024-185J","EPOCH":"2026-03-07T07:01:03.366912","MEAN_MOTION":14.27445636,"ECCENTRICITY":0.00084917,"INCLINATION":88.9751,"RA_OF_ASC_NODE":67.011,"ARG_OF_PERICENTER":27.656,"MEAN_ANOMALY":332.5084,"EPHEMERIS_TYPE":0,"CLASSIFICATION_TYPE":"U","NORAD_CAT_ID":61560,"ELEMENT_SET_NO":999,"REV_AT_EPOCH":8222,"BSTAR":0.000289466,"MEAN_MOTION_DOT":7.25e-6,"MEAN_MOTION_DDOT":0},{"OBJECT_NAME":"QIANFAN-28","OBJECT_ID":"2024-185K","EPOCH":"2026-03-07T05:32:34.994112","MEAN_MOTION":14.28216801,"ECCENTRICITY":0.00080987,"INCLINATION":88.9766,"RA_OF_ASC_NODE":67.0254,"ARG_OF_PERICENTER":29.0475,"MEAN_ANOMALY":331.1169,"EPHEMERIS_TYPE":0,"CLASSIFICATION_TYPE":"U","NORAD_CAT_ID":61561,"ELEMENT_SET_NO":999,"REV_AT_EPOCH":8223,"BSTAR":0.00048810206,"MEAN_MOTION_DOT":1.23e-5,"MEAN_MOTION_DDOT":0},{"OBJECT_NAME":"QIANFAN-29","OBJECT_ID":"2024-185L","EPOCH":"2026-03-07T05:50:37.136832","MEAN_MOTION":13.51044348,"ECCENTRICITY":0.00105073,"INCLINATION":88.972,"RA_OF_ASC_NODE":72.561,"ARG_OF_PERICENTER":155.3144,"MEAN_ANOMALY":204.8512,"EPHEMERIS_TYPE":0,"CLASSIFICATION_TYPE":"U","NORAD_CAT_ID":61562,"ELEMENT_SET_NO":999,"REV_AT_EPOCH":7920,"BSTAR":0.000299231,"MEAN_MOTION_DOT":2.05e-6,"MEAN_MOTION_DDOT":0},{"OBJECT_NAME":"QIANFAN-30","OBJECT_ID":"2024-185M","EPOCH":"2026-03-07T06:46:37.056576","MEAN_MOTION":13.50019364,"ECCENTRICITY":0.00087927,"INCLINATION":88.974,"RA_OF_ASC_NODE":72.1147,"ARG_OF_PERICENTER":139.7767,"MEAN_ANOMALY":220.4035,"EPHEMERIS_TYPE":0,"CLASSIFICATION_TYPE":"U","NORAD_CAT_ID":61563,"ELEMENT_SET_NO":999,"REV_AT_EPOCH":7947,"BSTAR":0.0003048561,"MEAN_MOTION_DOT":2.06e-6,"MEAN_MOTION_DDOT":0},{"OBJECT_NAME":"QIANFAN-31","OBJECT_ID":"2024-185N","EPOCH":"2026-03-07T06:28:55.294752","MEAN_MOTION":13.58003831,"ECCENTRICITY":0.00084528,"INCLINATION":88.9724,"RA_OF_ASC_NODE":71.7833,"ARG_OF_PERICENTER":131.4729,"MEAN_ANOMALY":228.7154,"EPHEMERIS_TYPE":0,"CLASSIFICATION_TYPE":"U","NORAD_CAT_ID":61564,"ELEMENT_SET_NO":999,"REV_AT_EPOCH":7963,"BSTAR":0.00031688654,"MEAN_MOTION_DOT":2.41e-6,"MEAN_MOTION_DDOT":0},{"OBJECT_NAME":"QIANFAN-32","OBJECT_ID":"2024-185P","EPOCH":"2026-03-07T06:40:34.036608","MEAN_MOTION":13.50764499,"ECCENTRICITY":0.00098684,"INCLINATION":88.9784,"RA_OF_ASC_NODE":72.2752,"ARG_OF_PERICENTER":168.0691,"MEAN_ANOMALY":192.0696,"EPHEMERIS_TYPE":0,"CLASSIFICATION_TYPE":"U","NORAD_CAT_ID":61565,"ELEMENT_SET_NO":999,"REV_AT_EPOCH":7945,"BSTAR":0.00024788026,"MEAN_MOTION_DOT":1.72e-6,"MEAN_MOTION_DDOT":0},{"OBJECT_NAME":"QIANFAN-33","OBJECT_ID":"2024-185Q","EPOCH":"2026-03-07T05:36:21.121920","MEAN_MOTION":13.9662471,"ECCENTRICITY":0.0009251,"INCLINATION":88.9739,"RA_OF_ASC_NODE":69.3688,"ARG_OF_PERICENTER":69.678,"MEAN_ANOMALY":290.539,"EPHEMERIS_TYPE":0,"CLASSIFICATION_TYPE":"U","NORAD_CAT_ID":61566,"ELEMENT_SET_NO":999,"REV_AT_EPOCH":8095,"BSTAR":0.00037276411,"MEAN_MOTION_DOT":5.3e-6,"MEAN_MOTION_DDOT":0},{"OBJECT_NAME":"QIANFAN-34","OBJECT_ID":"2024-185R","EPOCH":"2026-03-07T06:43:51.650688","MEAN_MOTION":14.02384983,"ECCENTRICITY":0.00082856,"INCLINATION":88.9716,"RA_OF_ASC_NODE":68.8148,"ARG_OF_PERICENTER":72.9627,"MEAN_ANOMALY":287.246,"EPHEMERIS_TYPE":0,"CLASSIFICATION_TYPE":"U","NORAD_CAT_ID":61567,"ELEMENT_SET_NO":999,"REV_AT_EPOCH":8120,"BSTAR":0.00038084039,"MEAN_MOTION_DOT":5.98e-6,"MEAN_MOTION_DDOT":0}]
